{"type": "FeatureCollection", "features": [ {"type": "Feature", "properties": {"norad_id": 35442, "name": "COSMOS 2251 DEB", "group": "cosmos-2251-debris", "lat": -49.048598099566284, "lon": 77.9593927654844, "alt_km": 623.6490649056705, "timestamp": "2025-12-13T16:48:33.106018+00:00", "meta": {"OBJECT_NAME": "COSMOS 2251 DEB", "OBJECT_ID": "1993-036AKL", "EPOCH": "2025-12-12T07:04:34.658112", "MEAN_MOTION": 14.84425936, "ECCENTRICITY": 0.00038569, "INCLINATION": 74.0269, "RA_OF_ASC_NODE": 100.0205, "ARG_OF_PERICENTER": 89.5486, "MEAN_ANOMALY": 270.6134, "EPHEMERIS_TYPE": 0, "CLASSIFICATION_TYPE": "U", "NORAD_CAT_ID": 35442, "ELEMENT_SET_NO": 999, "REV_AT_EPOCH": 87346, "BSTAR": 0.0037146562, "MEAN_MOTION_DOT": 0.00031367, "MEAN_MOTION_DDOT": 0}, "tle": {"line1": "1 35442U 93036AKL 25346.29484558  .00031367  00000+0  37147-2 0  9997", "line2": "2 35442  74.0269 100.0205 0003856  89.5486 270.6134 14.84425936873465"}}, "geometry": {"type": "Point", "coordinates": [77.9593927654844, -49.048598099566284]}}, {"type": "Feature", "properties": {"norad_id": 35443, "name": "COSMOS 2251 DEB", "group": "cosmos-2251-debris", "lat": 20.282723708369748, "lon": -24.255254530639437, "alt_km": 576.955213063542, "timestamp": "2025-12-13T16:48:33.106028+00:00", "meta": {"OBJECT_NAME": "COSMOS 2251 DEB", "OBJECT_ID": "1993-036AKM", "EPOCH": "2025-12-08T06:44:44.274336", "MEAN_MOTION": 14.96147372, "ECCENTRICITY": 0.00733753, "INCLINATION": 73.988, "RA_OF_ASC_NODE": 340.6328, "ARG_OF_PERICENTER": 123.8306, "MEAN_ANOMALY": 236.9892, "EPHEMERIS_TYPE": 0, "CLASSIFICATION_TYPE": "U", "NORAD_CAT_ID": 35443, "ELEMENT_SET_NO": 999, "REV_AT_EPOCH": 86811, "BSTAR": 0.0035457848, "MEAN_MOTION_DOT": 0.00042371, "MEAN_MOTION_DDOT": 0}, "tle": {"line1": "1 35443U 93036AKM 25342.28106799  .00042371  00000+0  35458-2 0  9991", "line2": "2 35443  73.9880 340.6328 0073375 123.8306 236.9892 14.96147372868117"}}, "geometry": {"type": "Point", "coordinates": [-24.255254530639437, 20.282723708369748]}}, {"type": "Feature", "properties": {"norad_id": 35445, "name": "COSMOS 2251 DEB", "group": "cosmos-2251-debris", "lat": -67.3610432605202, "lon": -105.15992962960352, "alt_km": 716.5275319641232, "timestamp": "2025-12-13T16:48:33.106038+00:00", "meta": {"OBJECT_NAME": "COSMOS 2251 DEB", "OBJECT_ID": "1993-036AKP", "EPOCH": "2025-12-09T14:24:43.017696", "MEAN_MOTION": 14.5903749, "ECCENTRICITY": 0.01436968, "INCLINATION": 74.0376, "RA_OF_ASC_NODE": 305.9887, "ARG_OF_PERICENTER": 33.7492, "MEAN_ANOMALY": 327.2717, "EPHEMERIS_TYPE": 0, "CLASSIFICATION_TYPE": "U", "NORAD_CAT_ID": 35445, "ELEMENT_SET_NO": 999, "REV_AT_EPOCH": 87283, "BSTAR": 0.0029213682, "MEAN_MOTION_DOT": 0.00015858, "MEAN_MOTION_DDOT": 0}, "tle": {"line1": "1 35445U 93036AKP 25343.60049789  .00015858  00000+0  29214-2 0  9998", "line2": "2 35445  74.0376 305.9887 0143696  33.7492 327.2717 14.59037490872836"}}, "geometry": {"type": "Point", "coordinates": [-105.15992962960352, -67.3610432605202]}}, {"type": "Feature", "properties": {"norad_id": 35446, "name": "COSMOS 2251 DEB", "group": "cosmos-2251-debris", "lat": -49.38436926041937, "lon": -63.118655642534236, "alt_km": 748.1521088314112, "timestamp": "2025-12-13T16:48:33.106048+00:00", "meta": {"OBJECT_NAME": "COSMOS 2251 DEB", "OBJECT_ID": "1993-036AKQ", "EPOCH": "2025-12-12T04:44:10.807584", "MEAN_MOTION": 14.54628502, "ECCENTRICITY": 0.00744372, "INCLINATION": 74.0468, "RA_OF_ASC_NODE": 319.2068, "ARG_OF_PERICENTER": 77.5544, "MEAN_ANOMALY": 283.3936, "EPHEMERIS_TYPE": 0, "CLASSIFICATION_TYPE": "U", "NORAD_CAT_ID": 35446, "ELEMENT_SET_NO": 999, "REV_AT_EPOCH": 88000, "BSTAR": 0.00018509547, "MEAN_MOTION_DOT": 7.91e-06, "MEAN_MOTION_DDOT": 0}, "tle": {"line1": "1 35446U 93036AKQ 25346.19734731  .00000791  00000+0  18510-3 0  9992", "line2": "2 35446  74.0468 319.2068 0074437  77.5544 283.3936 14.54628502880006"}}, "geometry": {"type": "Point", "coordinates": [-63.118655642534236, -49.38436926041937]}}, {"type": "Feature", "properties": {"norad_id": 35448, "name": "COSMOS 2251 DEB", "group": "cosmos-2251-debris", "lat": 13.255664527178562, "lon": -96.22001427136856, "alt_km": 714.2287127685267, "timestamp": "2025-12-13T16:48:33.106058+00:00", "meta": {"OBJECT_NAME": "COSMOS 2251 DEB", "OBJECT_ID": "1993-036AKS", "EPOCH": "2025-12-12T07:01:38.085024", "MEAN_MOTION": 14.54259096, "ECCENTRICITY": 0.00114375, "INCLINATION": 73.9043, "RA_OF_ASC_NODE": 90.3619, "ARG_OF_PERICENTER": 271.7905, "MEAN_ANOMALY": 88.1947, "EPHEMERIS_TYPE": 0, "CLASSIFICATION_TYPE": "U", "NORAD_CAT_ID": 35448, "ELEMENT_SET_NO": 999, "REV_AT_EPOCH": 87328, "BSTAR": 0.0017527146, "MEAN_MOTION_DOT": 7.415e-05, "MEAN_MOTION_DDOT": 0}, "tle": {"line1": "1 35448U 93036AKS 25346.29280191  .00007415  00000+0  17527-2 0  9997", "line2": "2 35448  73.9043  90.3619 0011437 271.7905  88.1947 14.54259096873287"}}, "geometry": {"type": "Point", "coordinates": [-96.22001427136856, 13.255664527178562]}}, {"type": "Feature", "properties": {"norad_id": 35451, "name": "COSMOS 2251 DEB", "group": "cosmos-2251-debris", "lat": 64.96263729107933, "lon": -117.51163220299608, "alt_km": 467.1826178672427, "timestamp": "2025-12-13T16:48:33.106068+00:00", "meta": {"OBJECT_NAME": "COSMOS 2251 DEB", "OBJECT_ID": "1993-036AKV", "EPOCH": "2025-12-12T07:30:05.032800", "MEAN_MOTION": 15.35535131, "ECCENTRICITY": 0.00410164, "INCLINATION": 73.9311, "RA_OF_ASC_NODE": 103.5905, "ARG_OF_PERICENTER": 349.7426, "MEAN_ANOMALY": 10.2937, "EPHEMERIS_TYPE": 0, "CLASSIFICATION_TYPE": "U", "NORAD_CAT_ID": 35451, "ELEMENT_SET_NO": 999, "REV_AT_EPOCH": 67399, "BSTAR": 0.0021824439, "MEAN_MOTION_DOT": 0.00078254, "MEAN_MOTION_DDOT": 0}, "tle": {"line1": "1 35451U 93036AKV 25346.31255825  .00078254  00000+0  21824-2 0  9994", "line2": "2 35451  73.9311 103.5905 0041016 349.7426  10.2937 15.35535131673992"}}, "geometry": {"type": "Point", "coordinates": [-117.51163220299608, 64.96263729107933]}}, {"type": "Feature", "properties": {"norad_id": 35453, "name": "COSMOS 2251 DEB", "group": "cosmos-2251-debris", "lat": 15.899639453108897, "lon": -166.08570238908504, "alt_km": 718.2925242035171, "timestamp": "2025-12-13T16:48:33.106078+00:00", "meta": {"OBJECT_NAME": "COSMOS 2251 DEB", "OBJECT_ID": "1993-036AKX", "EPOCH": "2025-12-12T10:00:01.192608", "MEAN_MOTION": 14.37983532, "ECCENTRICITY": 0.00672601, "INCLINATION": 74.0093, "RA_OF_ASC_NODE": 20.9669, "ARG_OF_PERICENTER": 155.0047, "MEAN_ANOMALY": 205.439, "EPHEMERIS_TYPE": 0, "CLASSIFICATION_TYPE": "U", "NORAD_CAT_ID": 35453, "ELEMENT_SET_NO": 999, "REV_AT_EPOCH": 86214, "BSTAR": 0.0010887113, "MEAN_MOTION_DOT": 3.355e-05, "MEAN_MOTION_DDOT": 0}, "tle": {"line1": "1 35453U 93036AKX 25346.41668047  .00003355  00000+0  10887-2 0  9998", "line2": "2 35453  74.0093  20.9669 0067260 155.0047 205.4390 14.37983532862149"}}, "geometry": {"type": "Point", "coordinates": [-166.08570238908504, 15.899639453108897]}}, {"type": "Feature", "properties": {"norad_id": 35455, "name": "COSMOS 2251 DEB", "group": "cosmos-2251-debris", "lat": 52.64979505380881, "lon": -44.958032744344926, "alt_km": 655.8268178416974, "timestamp": "2025-12-13T16:48:33.106088+00:00", "meta": {"OBJECT_NAME": "COSMOS 2251 DEB", "OBJECT_ID": "1993-036AKZ", "EPOCH": "2025-12-12T14:03:12.598272", "MEAN_MOTION": 14.4940376, "ECCENTRICITY": 0.00990921, "INCLINATION": 74.0283, "RA_OF_ASC_NODE": 295.093, "ARG_OF_PERICENTER": 38.658, "MEAN_ANOMALY": 322.1617, "EPHEMERIS_TYPE": 0, "CLASSIFICATION_TYPE": "U", "NORAD_CAT_ID": 35455, "ELEMENT_SET_NO": 999, "REV_AT_EPOCH": 86541, "BSTAR": 0.0022683665, "MEAN_MOTION_DOT": 9.22e-05, "MEAN_MOTION_DDOT": 0}, "tle": {"line1": "1 35455U 93036AKZ 25346.58556248  .00009220  00000+0  22684-2 0  9992", "line2": "2 35455  74.0283 295.0930 0099092  38.6580 322.1617 14.49403760865419"}}, "geometry": {"type": "Point", "coordinates": [-44.958032744344926, 52.64979505380881]}}, {"type": "Feature", "properties": {"norad_id": 35456, "name": "COSMOS 2251 DEB", "group": "cosmos-2251-debris", "lat": 50.742871033088086, "lon": -85.01701213913967, "alt_km": 701.195629082621, "timestamp": "2025-12-13T16:48:33.106097+00:00", "meta": {"OBJECT_NAME": "COSMOS 2251 DEB", "OBJECT_ID": "1993-036ALA", "EPOCH": "2025-12-07T16:26:35.520576", "MEAN_MOTION": 14.69275987, "ECCENTRICITY": 0.0065481, "INCLINATION": 73.9502, "RA_OF_ASC_NODE": 127.3161, "ARG_OF_PERICENTER": 338.308, "MEAN_ANOMALY": 21.5318, "EPHEMERIS_TYPE": 0, "CLASSIFICATION_TYPE": "U", "NORAD_CAT_ID": 35456, "ELEMENT_SET_NO": 999, "REV_AT_EPOCH": 65801, "BSTAR": 0.0028319025, "MEAN_MOTION_DOT": 0.00017275, "MEAN_MOTION_DDOT": 0}, "tle": {"line1": "1 35456U 93036ALA 25341.68513334  .00017275  00000+0  28319-2 0  9998", "line2": "2 35456  73.9502 127.3161 0065481 338.3080  21.5318 14.69275987658019"}}, "geometry": {"type": "Point", "coordinates": [-85.01701213913967, 50.742871033088086]}}, {"type": "Feature", "properties": {"norad_id": 35459, "name": "COSMOS 2251 DEB", "group": "cosmos-2251-debris", "lat": 35.25686340303293, "lon": -162.6949798822684, "alt_km": 765.4459933984626, "timestamp": "2025-12-13T16:48:33.106107+00:00", "meta": {"OBJECT_NAME": "COSMOS 2251 DEB", "OBJECT_ID": "1993-036ALD", "EPOCH": "2025-12-10T20:09:22.902624", "MEAN_MOTION": 14.37457314, "ECCENTRICITY": 0.00163485, "INCLINATION": 73.8697, "RA_OF_ASC_NODE": 190.8154, "ARG_OF_PERICENTER": 139.3588, "MEAN_ANOMALY": 220.8788, "EPHEMERIS_TYPE": 0, "CLASSIFICATION_TYPE": "U", "NORAD_CAT_ID": 35459, "ELEMENT_SET_NO": 999, "REV_AT_EPOCH": 58334, "BSTAR": 0.00035409839, "MEAN_MOTION_DOT": 1.034e-05, "MEAN_MOTION_DDOT": 0}, "tle": {"line1": "1 35459U 93036ALD 25344.83984841  .00001034  00000+0  35410-3 0  9993", "line2": "2 35459  73.8697 190.8154 0016348 139.3588 220.8788 14.37457314583342"}}, "geometry": {"type": "Point", "coordinates": [-162.6949798822684, 35.25686340303293]}}]}